LANDSAT 9               
1 49260U 21088A   23219.93929058  .00000571  00000+0  13694-3 0  9990
2 49260  98.2271 289.2050 0001371 107.8066 252.3282 14.57106439 98920
